$$SOE
2460742.500000000, A.D. 2025-Mar-08 00:00:00.0000, 2.758033884107125E+09, 5.448593751007597E+09, 4.468772953458984E+08,
2460749.500000000, A.D. 2025-Mar-15 00:00:00.0000, 2.755610264837615E+09, 5.449803051045789E+09, 4.477408241234627E+08,
2460756.500000000, A.D. 2025-Mar-22 00:00:00.0000, 2.753186066318882E+09, 5.451011113729118E+09, 4.486042577997105E+08,
2460763.500000000, A.D. 2025-Mar-29 00:00:00.0000, 2.750761290296708E+09, 5.452217943280858E+09, 4.494675963097615E+08,
2460770.500000000, A.D. 2025-Apr-05 00:00:00.0000, 2.748335937318760E+09, 5.453423543286605E+09, 4.503308396250944E+08,
2460777.500000000, A.D. 2025-Apr-12 00:00:00.0000, 2.745910007336709E+09, 5.454627916733772E+09, 4.511939877086966E+08,
2460784.500000000, A.D. 2025-Apr-19 00:00:00.0000, 2.743483499889788E+09, 5.455831066157957E+09, 4.520570405174980E+08,
2460791.500000000, A.D. 2025-Apr-26 00:00:00.0000, 2.741056414141426E+09, 5.457032993693464E+09, 4.529199980103116E+08,
2460798.500000000, A.D. 2025-May-03 00:00:00.0000, 2.738628748882642E+09, 5.458233701047536E+09, 4.537828601522210E+08,
2460805.500000000, A.D. 2025-May-10 00:00:00.0000, 2.736200502530800E+09, 5.459433189407319E+09, 4.546456269132962E+08,
2460812.500000000, A.D. 2025-May-17 00:00:00.0000, 2.733771673160440E+09, 5.460631459238852E+09, 4.555082982547989E+08,
2460819.500000000, A.D. 2025-May-24 00:00:00.0000, 2.731342258740109E+09, 5.461828509923889E+09, 4.563708740823700E+08,
2460826.500000000, A.D. 2025-May-31 00:00:00.0000, 2.728912257992978E+09, 5.463024339545811E+09, 4.572333541532452E+08,
2460833.500000000, A.D. 2025-Jun-07 00:00:00.0000, 2.726481671480289E+09, 5.464218946029591E+09, 4.580957380727246E+08,
2460840.500000000, A.D. 2025-Jun-14 00:00:00.0000, 2.724050500543092E+09, 5.465412328969217E+09, 4.589580255422618E+08,
2460847.500000000, A.D. 2025-Jun-21 00:00:00.0000, 2.721618745319025E+09, 5.466604488871361E+09, 4.598202164802585E+08,
2460854.500000000, A.D. 2025-Jun-28 00:00:00.0000, 2.719186404962346E+09, 5.467795425580151E+09, 4.606823108728967E+08,
2460861.500000000, A.D. 2025-Jul-05 00:00:00.0000, 2.716753478550484E+09, 5.468985138039688E+09, 4.615443086703920E+08,
2460868.500000000, A.D. 2025-Jul-12 00:00:00.0000, 2.714319965486128E+09, 5.470173624589120E+09, 4.624062097721531E+08,
2460875.500000000, A.D. 2025-Jul-19 00:00:00.0000, 2.711885865584393E+09, 5.471360883215324E+09, 4.632680140365312E+08,
2460882.500000000, A.D. 2025-Jul-26 00:00:00.0000, 2.709451179055033E+09, 5.472546911706833E+09, 4.641297212913697E+08,
2460889.500000000, A.D. 2025-Aug-02 00:00:00.0000, 2.707015906445050E+09, 5.473731707730734E+09, 4.649913313412364E+08,
2460896.500000000, A.D. 2025-Aug-09 00:00:00.0000, 2.704580048565142E+09, 5.474915268818234E+09, 4.658528439681270E+08,
2460903.500000000, A.D. 2025-Aug-16 00:00:00.0000, 2.702143606476928E+09, 5.476097592195850E+09, 4.667142589136076E+08,
2460910.500000000, A.D. 2025-Aug-23 00:00:00.0000, 2.699706581833563E+09, 5.477278674479012E+09, 4.675755758170958E+08,
2460917.500000000, A.D. 2025-Aug-30 00:00:00.0000, 2.697268977902703E+09, 5.478458511942396E+09, 4.684367941387031E+08,
2460924.500000000, A.D. 2025-Sep-06 00:00:00.0000, 2.694830799853661E+09, 5.479637102367392E+09, 4.692979132787082E+08,
2460931.500000000, A.D. 2025-Sep-13 00:00:00.0000, 2.692392052638032E+09, 5.480814445984015E+09, 4.701589328442409E+08,
2460938.500000000, A.D. 2025-Sep-20 00:00:00.0000, 2.689952739737000E+09, 5.481990543863007E+09, 4.710198526288285E+08,
2460945.500000000, A.D. 2025-Sep-27 00:00:00.0000, 2.687512863833870E+09, 5.483165396869808E+09, 4.718806724622185E+08,
2460952.500000000, A.D. 2025-Oct-04 00:00:00.0000, 2.685072427395151E+09, 5.484339005719862E+09, 4.727413921596653E+08,
2460959.500000000, A.D. 2025-Oct-11 00:00:00.0000, 2.682631432786520E+09, 5.485511371192389E+09, 4.736020115280375E+08,
2460966.500000000, A.D. 2025-Oct-18 00:00:00.0000, 2.680189882207344E+09, 5.486682494228517E+09, 4.744625303802965E+08,
2460973.500000000, A.D. 2025-Oct-25 00:00:00.0000, 2.677747777583283E+09, 5.487852375925055E+09, 4.753229485464547E+08,
2460980.500000000, A.D. 2025-Nov-01 00:00:00.0000, 2.675305120456378E+09, 5.489021017439855E+09, 4.761832658785279E+08,
2460987.500000000, A.D. 2025-Nov-08 00:00:00.0000, 2.672861911907146E+09, 5.490188419777766E+09, 4.770434822436140E+08,
2460994.500000000, A.D. 2025-Nov-15 00:00:00.0000, 2.670418152656474E+09, 5.491354583399095E+09, 4.779035974865372E+08,
2461001.500000000, A.D. 2025-Nov-22 00:00:00.0000, 2.667973843749960E+09, 5.492519507871151E+09, 4.787636113429132E+08,
2461008.500000000, A.D. 2025-Nov-29 00:00:00.0000, 2.665528987671431E+09, 5.493683192698298E+09, 4.796235234092040E+08,
2461015.500000000, A.D. 2025-Dec-06 00:00:00.0000, 2.663083587608153E+09, 5.494845639194884E+09, 4.804833333673584E+08,
2461022.500000000, A.D. 2025-Dec-13 00:00:00.0000, 2.660637645301374E+09, 5.496006850031097E+09, 4.813430411486559E+08,
2461029.500000000, A.D. 2025-Dec-20 00:00:00.0000, 2.658191160975321E+09, 5.497166827475251E+09, 4.822026467998519E+08,
2461036.500000000, A.D. 2025-Dec-27 00:00:00.0000, 2.655744134270854E+09, 5.498325572924227E+09, 4.830621503618240E+08,
2461043.500000000, A.D. 2026-Jan-03 00:00:00.0000, 2.653296564724559E+09, 5.499483087107069E+09, 4.839215518442223E+08,
2461050.500000000, A.D. 2026-Jan-10 00:00:00.0000, 2.650848451903017E+09, 5.500639370283516E+09, 4.847808512306151E+08,
2461057.500000000, A.D. 2026-Jan-17 00:00:00.0000, 2.648399795424835E+09, 5.501794422346718E+09, 4.856400484853783E+08,
2461064.500000000, A.D. 2026-Jan-24 00:00:00.0000, 2.645950594948370E+09, 5.502948242853672E+09, 4.864991435571272E+08,
2461071.500000000, A.D. 2026-Jan-31 00:00:00.0000, 2.643500850148595E+09, 5.504100830976938E+09, 4.873581363760397E+08,
2461078.500000000, A.D. 2026-Feb-07 00:00:00.0000, 2.641050560744646E+09, 5.505252185321164E+09, 4.882170268348556E+08,
2461085.500000000, A.D. 2026-Feb-14 00:00:00.0000, 2.638599726831072E+09, 5.506402303590044E+09, 4.890758147291901E+08,
2461092.500000000, A.D. 2026-Feb-21 00:00:00.0000, 2.636148349900392E+09, 5.507551182681533E+09, 4.899344996688967E+08,
2461099.500000000, A.D. 2026-Feb-28 00:00:00.0000, 2.633696433472078E+09, 5.508698820365376E+09, 4.907930811543174E+08,
2461106.500000000, A.D. 2026-Mar-07 00:00:00.0000, 2.631243981269451E+09, 5.509845216593373E+09, 4.916515588469584E+08,
2461113.500000000, A.D. 2026-Mar-14 00:00:00.0000, 2.628790995720169E+09, 5.510990372109775E+09, 4.925099325894530E+08,
2461120.500000000, A.D. 2026-Mar-21 00:00:00.0000, 2.626337478563214E+09, 5.512134287259851E+09, 4.933682022482290E+08,
2461127.500000000, A.D. 2026-Mar-28 00:00:00.0000, 2.623883431552969E+09, 5.513276962025368E+09, 4.942263676473534E+08,
2461134.500000000, A.D. 2026-Apr-04 00:00:00.0000, 2.621428856656662E+09, 5.514418396321266E+09, 4.950844285701802E+08,
2461141.500000000, A.D. 2026-Apr-11 00:00:00.0000, 2.618973756019106E+09, 5.515558590193625E+09, 4.959423847744324E+08,
2461148.500000000, A.D. 2026-Apr-18 00:00:00.0000, 2.616518131854149E+09, 5.516697543912184E+09, 4.968002360057869E+08,
2461155.500000000, A.D. 2026-Apr-25 00:00:00.0000, 2.614061986308873E+09, 5.517835257972097E+09, 4.976579820071275E+08,
2461162.500000000, A.D. 2026-May-02 00:00:00.0000, 2.611605321331590E+09, 5.518971732975336E+09, 4.985156225184555E+08,
2461169.500000000, A.D. 2026-May-09 00:00:00.0000, 2.609148138668612E+09, 5.520106969325479E+09, 4.993731572507608E+08,
2461176.500000000, A.D. 2026-May-16 00:00:00.0000, 2.606690440368109E+09, 5.521240966874268E+09, 5.002305858106341E+08,
2461183.500000000, A.D. 2026-May-23 00:00:00.0000, 2.604232229843203E+09, 5.522373725542362E+09, 5.010879076544704E+08,
2461190.500000000, A.D. 2026-May-30 00:00:00.0000, 2.601773511416006E+09, 5.523505247233829E+09, 5.019451222890544E+08,
2461197.500000000, A.D. 2026-Jun-06 00:00:00.0000, 2.599314288025457E+09, 5.524635535770886E+09, 5.028022294799933E+08,
2461204.500000000, A.D. 2026-Jun-13 00:00:00.0000, 2.596854560764936E+09, 5.525764595047840E+09, 5.036592291479118E+08,
2461211.500000000, A.D. 2026-Jun-20 00:00:00.0000, 2.594394329748646E+09, 5.526892428330340E+09, 5.045161212372949E+08,
2461218.500000000, A.D. 2026-Jun-27 00:00:00.0000, 2.591933594608413E+09, 5.528019038360173E+09, 5.053729056857064E+08,
2461225.500000000, A.D. 2026-Jul-04 00:00:00.0000, 2.589472354620786E+09, 5.529144427490684E+09, 5.062295824298146E+08,
2461232.500000000, A.D. 2026-Jul-11 00:00:00.0000, 2.587010608718347E+09, 5.530268597720997E+09, 5.070861514138680E+08,
2461239.500000000, A.D. 2026-Jul-18 00:00:00.0000, 2.584548355477942E+09, 5.531391550654840E+09, 5.079426125939474E+08,
2461246.500000000, A.D. 2026-Jul-25 00:00:00.0000, 2.582085593110255E+09, 5.532513287386723E+09, 5.087989659357681E+08,
2461253.500000000, A.D. 2026-Aug-01 00:00:00.0000, 2.579622319498802E+09, 5.533633808267447E+09, 5.096552113974714E+08,
2461260.500000000, A.D. 2026-Aug-08 00:00:00.0000, 2.577158532503160E+09, 5.534753112513155E+09, 5.105113488746281E+08,
2461267.500000000, A.D. 2026-Aug-15 00:00:00.0000, 2.574694230941438E+09, 5.535871198108400E+09, 5.113673781061096E+08,
2461274.500000000, A.D. 2026-Aug-22 00:00:00.0000, 2.572229415490796E+09, 5.536988063224704E+09, 5.122232987103510E+08,
2461281.500000000, A.D. 2026-Aug-29 00:00:00.0000, 2.569764087216836E+09, 5.538103707782026E+09, 5.130791104497788E+08,
2461288.500000000, A.D. 2026-Sep-05 00:00:00.0000, 2.567298245865352E+09, 5.539218132285162E+09, 5.139348132932985E+08,
2461295.500000000, A.D. 2026-Sep-12 00:00:00.0000, 2.564831890371310E+09, 5.540331336430872E+09, 5.147904072556629E+08,
2461302.500000000, A.D. 2026-Sep-19 00:00:00.0000, 2.562365019711186E+09, 5.541443319029917E+09, 5.156458923117781E+08,
2461309.500000000, A.D. 2026-Sep-26 00:00:00.0000, 2.559897633239986E+09, 5.542554078311110E+09, 5.165012683885059E+08,
2461316.500000000, A.D. 2026-Oct-03 00:00:00.0000, 2.557429730761494E+09, 5.543663612156681E+09, 5.173565353743393E+08,
$$EOE